[{"OBJECT_NAME":"ONEWEB-0101","OBJECT_ID":"2021-025H","EPOCH":"2026-06-19T02:58:47.614944","MEAN_MOTION":13.13470601,"ECCENTRICITY":0.0001819,"INCLINATION":87.8954,"RA_OF_ASC_NODE":319.8401,"ARG_OF_PERICENTER":101.9088,"MEAN_ANOMALY":258.2246,"EPHEMERIS_TYPE":0,"CLASSIFICATION_TYPE":"U","NORAD_CAT_ID":48049,"ELEMENT_SET_NO":999,"REV_AT_EPOCH":25375,"BSTAR":-0.00042734,"MEAN_MOTION_DOT":-1.43e-06,"MEAN_MOTION_DDOT":0.0},{"OBJECT_NAME":"ONEWEB-0113","OBJECT_ID":"2021-025J","EPOCH":"2026-06-18T22:03:59.259168","MEAN_MOTION":13.1389385,"ECCENTRICITY":0.0001849,"INCLINATION":87.8959,"RA_OF_ASC_NODE":319.7912,"ARG_OF_PERICENTER":93.6344,"MEAN_ANOMALY":266.4997,"EPHEMERIS_TYPE":0,"CLASSIFICATION_TYPE":"U","NORAD_CAT_ID":48050,"ELEMENT_SET_NO":999,"REV_AT_EPOCH":25383,"BSTAR":-0.0004216,"MEAN_MOTION_DOT":-1.42e-06,"MEAN_MOTION_DDOT":0.0},{"OBJECT_NAME":"ONEWEB-0112","OBJECT_ID":"2021-025K","EPOCH":"2026-06-19T03:59:44.964960","MEAN_MOTION":13.13470259,"ECCENTRICITY":0.0001804,"INCLINATION":87.8964,"RA_OF_ASC_NODE":319.8144,"ARG_OF_PERICENTER":104.9418,"MEAN_ANOMALY":255.1911,"EPHEMERIS_TYPE":0,"CLASSIFICATION_TYPE":"U","NORAD_CAT_ID":48051,"ELEMENT_SET_NO":999,"REV_AT_EPOCH":25385,"BSTAR":0.0008223000000000001,"MEAN_MOTION_DOT":3.13e-06,"MEAN_MOTION_DDOT":0.0},{"OBJECT_NAME":"ONEWEB-0156","OBJECT_ID":"2021-025L","EPOCH":"2026-06-19T04:11:56.019552","MEAN_MOTION":13.13470371,"ECCENTRICITY":0.0001973,"INCLINATION":87.8961,"RA_OF_ASC_NODE":319.8228,"ARG_OF_PERICENTER":98.413,"MEAN_ANOMALY":261.7223,"EPHEMERIS_TYPE":0,"CLASSIFICATION_TYPE":"U","NORAD_CAT_ID":48052,"ELEMENT_SET_NO":999,"REV_AT_EPOCH":25383,"BSTAR":0.0010231,"MEAN_MOTION_DOT":3.86e-06,"MEAN_MOTION_DDOT":0.0},{"OBJECT_NAME":"ONEWEB-0161","OBJECT_ID":"2021-025M","EPOCH":"2026-06-19T03:35:21.634080","MEAN_MOTION":13.13471075,"ECCENTRICITY":0.0002016,"INCLINATION":87.8962,"RA_OF_ASC_NODE":319.8291,"ARG_OF_PERICENTER":99.6799,"MEAN_ANOMALY":260.4558,"EPHEMERIS_TYPE":0,"CLASSIFICATION_TYPE":"U","NORAD_CAT_ID":48053,"ELEMENT_SET_NO":999,"REV_AT_EPOCH":25376,"BSTAR":-0.00045953,"MEAN_MOTION_DOT":-1.55e-06,"MEAN_MOTION_DDOT":0.0},{"OBJECT_NAME":"ONEWEB-0158","OBJECT_ID":"2021-025N","EPOCH":"2026-06-19T02:36:52.007328","MEAN_MOTION":13.1347098,"ECCENTRICITY":0.0001567,"INCLINATION":87.8964,"RA_OF_ASC_NODE":319.8343,"ARG_OF_PERICENTER":96.3012,"MEAN_ANOMALY":263.8295,"EPHEMERIS_TYPE":0,"CLASSIFICATION_TYPE":"U","NORAD_CAT_ID":48054,"ELEMENT_SET_NO":999,"REV_AT_EPOCH":25388,"BSTAR":0.0005242599999999999,"MEAN_MOTION_DOT":2.04e-06,"MEAN_MOTION_DDOT":0.0},{"OBJECT_NAME":"ONEWEB-0157","OBJECT_ID":"2021-025P","EPOCH":"2026-06-19T03:13:26.149152","MEAN_MOTION":13.13469987,"ECCENTRICITY":0.0002121,"INCLINATION":87.896,"RA_OF_ASC_NODE":319.8349,"ARG_OF_PERICENTER":105.5977,"MEAN_ANOMALY":254.5386,"EPHEMERIS_TYPE":0,"CLASSIFICATION_TYPE":"U","NORAD_CAT_ID":48055,"ELEMENT_SET_NO":999,"REV_AT_EPOCH":25382,"BSTAR":-0.0008652999999999999,"MEAN_MOTION_DOT":-3.03e-06,"MEAN_MOTION_DDOT":0.0},{"OBJECT_NAME":"ONEWEB-0162","OBJECT_ID":"2021-025Q","EPOCH":"2026-06-19T02:39:06.475104","MEAN_MOTION":13.13469705,"ECCENTRICITY":0.000197,"INCLINATION":87.8959,"RA_OF_ASC_NODE":319.8404,"ARG_OF_PERICENTER":94.067,"MEAN_ANOMALY":266.0684,"EPHEMERIS_TYPE":0,"CLASSIFICATION_TYPE":"U","NORAD_CAT_ID":48056,"ELEMENT_SET_NO":999,"REV_AT_EPOCH":25379,"BSTAR":0.00045694,"MEAN_MOTION_DOT":1.8e-06,"MEAN_MOTION_DDOT":0.0},{"OBJECT_NAME":"ONEWEB-0155","OBJECT_ID":"2021-025R","EPOCH":"2026-06-19T02:49:02.841600","MEAN_MOTION":13.13470108,"ECCENTRICITY":0.0001827,"INCLINATION":87.896,"RA_OF_ASC_NODE":319.8353,"ARG_OF_PERICENTER":102.6118,"MEAN_ANOMALY":257.5216,"EPHEMERIS_TYPE":0,"CLASSIFICATION_TYPE":"U","NORAD_CAT_ID":48057,"ELEMENT_SET_NO":999,"REV_AT_EPOCH":25393,"BSTAR":2.4295e-06,"MEAN_MOTION_DOT":1.4e-07,"MEAN_MOTION_DDOT":0.0},{"OBJECT_NAME":"ONEWEB-0149","OBJECT_ID":"2021-025S","EPOCH":"2026-06-19T03:20:44.648160","MEAN_MOTION":13.13469686,"ECCENTRICITY":0.000202,"INCLINATION":87.8961,"RA_OF_ASC_NODE":319.8346,"ARG_OF_PERICENTER":93.3822,"MEAN_ANOMALY":266.7538,"EPHEMERIS_TYPE":0,"CLASSIFICATION_TYPE":"U","NORAD_CAT_ID":48058,"ELEMENT_SET_NO":999,"REV_AT_EPOCH":25374,"BSTAR":-0.001077,"MEAN_MOTION_DOT":-3.81e-06,"MEAN_MOTION_DDOT":0.0},{"OBJECT_NAME":"ONEWEB-0148","OBJECT_ID":"2021-025T","EPOCH":"2026-06-19T04:16:48.675360","MEAN_MOTION":13.13470166,"ECCENTRICITY":0.0002412,"INCLINATION":87.8955,"RA_OF_ASC_NODE":319.8335,"ARG_OF_PERICENTER":92.151,"MEAN_ANOMALY":267.9896,"EPHEMERIS_TYPE":0,"CLASSIFICATION_TYPE":"U","NORAD_CAT_ID":48059,"ELEMENT_SET_NO":999,"REV_AT_EPOCH":25387,"BSTAR":0.00088895,"MEAN_MOTION_DOT":3.37e-06,"MEAN_MOTION_DDOT":0.0},{"OBJECT_NAME":"ONEWEB-0160","OBJECT_ID":"2021-025U","EPOCH":"2026-06-19T02:51:28.636416","MEAN_MOTION":13.13470737,"ECCENTRICITY":0.0001329,"INCLINATION":87.8956,"RA_OF_ASC_NODE":319.8413,"ARG_OF_PERICENTER":76.6207,"MEAN_ANOMALY":283.5071,"EPHEMERIS_TYPE":0,"CLASSIFICATION_TYPE":"U","NORAD_CAT_ID":48060,"ELEMENT_SET_NO":999,"REV_AT_EPOCH":25381,"BSTAR":-0.00022174,"MEAN_MOTION_DOT":-6.8e-07,"MEAN_MOTION_DDOT":0.0},{"OBJECT_NAME":"ONEWEB-0163","OBJECT_ID":"2021-025V","EPOCH":"2026-06-19T02:29:32.320320","MEAN_MOTION":13.13470629,"ECCENTRICITY":0.0002004,"INCLINATION":87.8964,"RA_OF_ASC_NODE":319.839,"ARG_OF_PERICENTER":103.9945,"MEAN_ANOMALY":256.1407,"EPHEMERIS_TYPE":0,"CLASSIFICATION_TYPE":"U","NORAD_CAT_ID":48061,"ELEMENT_SET_NO":999,"REV_AT_EPOCH":25393,"BSTAR":0.00076159,"MEAN_MOTION_DOT":2.91e-06,"MEAN_MOTION_DDOT":0.0},{"OBJECT_NAME":"ONEWEB-0159","OBJECT_ID":"2021-025W","EPOCH":"2026-06-18T17:08:52.703232","MEAN_MOTION":13.1347069,"ECCENTRICITY":0.000193,"INCLINATION":87.8966,"RA_OF_ASC_NODE":319.91,"ARG_OF_PERICENTER":103.6419,"MEAN_ANOMALY":256.4925,"EPHEMERIS_TYPE":0,"CLASSIFICATION_TYPE":"U","NORAD_CAT_ID":48062,"ELEMENT_SET_NO":999,"REV_AT_EPOCH":25380,"BSTAR":0.00062682,"MEAN_MOTION_DOT":2.42e-06,"MEAN_MOTION_DDOT":0.0},{"OBJECT_NAME":"ONEWEB-0164","OBJECT_ID":"2021-025X","EPOCH":"2026-06-19T03:40:14.090304","MEAN_MOTION":13.1347123,"ECCENTRICITY":0.000177,"INCLINATION":87.8968,"RA_OF_ASC_NODE":319.829,"ARG_OF_PERICENTER":96.8643,"MEAN_ANOMALY":263.2687,"EPHEMERIS_TYPE":0,"CLASSIFICATION_TYPE":"U","NORAD_CAT_ID":48063,"ELEMENT_SET_NO":999,"REV_AT_EPOCH":25384,"BSTAR":5.1772e-06,"MEAN_MOTION_DOT":1.5e-07,"MEAN_MOTION_DDOT":0.0},{"OBJECT_NAME":"ONEWEB-0167","OBJECT_ID":"2021-025Y","EPOCH":"2026-06-19T04:20:27.342528","MEAN_MOTION":13.13468071,"ECCENTRICITY":0.0001818,"INCLINATION":87.8955,"RA_OF_ASC_NODE":319.8333,"ARG_OF_PERICENTER":118.211,"MEAN_ANOMALY":241.9203,"EPHEMERIS_TYPE":0,"CLASSIFICATION_TYPE":"U","NORAD_CAT_ID":48064,"ELEMENT_SET_NO":999,"REV_AT_EPOCH":25383,"BSTAR":0.00073419,"MEAN_MOTION_DOT":2.81e-06,"MEAN_MOTION_DDOT":0.0},{"OBJECT_NAME":"ONEWEB-0166","OBJECT_ID":"2021-025Z","EPOCH":"2026-06-19T03:03:41.176224","MEAN_MOTION":13.13458558,"ECCENTRICITY":0.0002008,"INCLINATION":87.896,"RA_OF_ASC_NODE":319.8154,"ARG_OF_PERICENTER":95.366,"MEAN_ANOMALY":264.7699,"EPHEMERIS_TYPE":0,"CLASSIFICATION_TYPE":"U","NORAD_CAT_ID":48065,"ELEMENT_SET_NO":999,"REV_AT_EPOCH":25390,"BSTAR":-0.0026565,"MEAN_MOTION_DOT":-9.57e-06,"MEAN_MOTION_DDOT":0.0},{"OBJECT_NAME":"ONEWEB-0151","OBJECT_ID":"2021-025AA","EPOCH":"2026-06-18T23:26:42.419904","MEAN_MOTION":13.13470328,"ECCENTRICITY":0.0001759,"INCLINATION":87.8957,"RA_OF_ASC_NODE":319.8619,"ARG_OF_PERICENTER":100.2632,"MEAN_ANOMALY":259.8696,"EPHEMERIS_TYPE":0,"CLASSIFICATION_TYPE":"U","NORAD_CAT_ID":48066,"ELEMENT_SET_NO":999,"REV_AT_EPOCH":25382,"BSTAR":-0.0008232500000000001,"MEAN_MOTION_DOT":-2.88e-06,"MEAN_MOTION_DDOT":0.0},{"OBJECT_NAME":"ONEWEB-0170","OBJECT_ID":"2021-025AB","EPOCH":"2026-06-19T03:18:17.535744","MEAN_MOTION":13.13470233,"ECCENTRICITY":0.0001376,"INCLINATION":87.8958,"RA_OF_ASC_NODE":319.8323,"ARG_OF_PERICENTER":99.1763,"MEAN_ANOMALY":260.9522,"EPHEMERIS_TYPE":0,"CLASSIFICATION_TYPE":"U","NORAD_CAT_ID":48067,"ELEMENT_SET_NO":999,"REV_AT_EPOCH":25380,"BSTAR":-0.00082779,"MEAN_MOTION_DOT":-2.9e-06,"MEAN_MOTION_DDOT":0.0},{"OBJECT_NAME":"ONEWEB-0168","OBJECT_ID":"2021-025AC","EPOCH":"2026-06-19T02:56:21.324192","MEAN_MOTION":13.13469975,"ECCENTRICITY":0.0002004,"INCLINATION":87.8965,"RA_OF_ASC_NODE":319.8346,"ARG_OF_PERICENTER":100.0374,"MEAN_ANOMALY":260.0982,"EPHEMERIS_TYPE":0,"CLASSIFICATION_TYPE":"U","NORAD_CAT_ID":48068,"ELEMENT_SET_NO":999,"REV_AT_EPOCH":25381,"BSTAR":-0.00021291,"MEAN_MOTION_DOT":-6.5e-07,"MEAN_MOTION_DDOT":0.0},{"OBJECT_NAME":"ONEWEB-0173","OBJECT_ID":"2021-025AD","EPOCH":"2026-06-19T02:44:10.335264","MEAN_MOTION":13.13469827,"ECCENTRICITY":0.0001985,"INCLINATION":87.8959,"RA_OF_ASC_NODE":319.8384,"ARG_OF_PERICENTER":107.6561,"MEAN_ANOMALY":252.4785,"EPHEMERIS_TYPE":0,"CLASSIFICATION_TYPE":"U","NORAD_CAT_ID":48069,"ELEMENT_SET_NO":999,"REV_AT_EPOCH":25405,"BSTAR":0.00021804000000000002,"MEAN_MOTION_DOT":9.2e-07,"MEAN_MOTION_DDOT":0.0},{"OBJECT_NAME":"ONEWEB-0171","OBJECT_ID":"2021-025AE","EPOCH":"2026-06-19T03:37:47.869536","MEAN_MOTION":13.13471397,"ECCENTRICITY":0.000176,"INCLINATION":87.8956,"RA_OF_ASC_NODE":319.8389,"ARG_OF_PERICENTER":99.378,"MEAN_ANOMALY":260.7548,"EPHEMERIS_TYPE":0,"CLASSIFICATION_TYPE":"U","NORAD_CAT_ID":48070,"ELEMENT_SET_NO":999,"REV_AT_EPOCH":25387,"BSTAR":-0.00040110000000000005,"MEAN_MOTION_DOT":-1.34e-06,"MEAN_MOTION_DDOT":0.0},{"OBJECT_NAME":"ONEWEB-0172","OBJECT_ID":"2021-025AF","EPOCH":"2026-06-19T03:08:31.966656","MEAN_MOTION":13.13469581,"ECCENTRICITY":0.0001803,"INCLINATION":87.8961,"RA_OF_ASC_NODE":319.833,"ARG_OF_PERICENTER":102.6582,"MEAN_ANOMALY":257.4748,"EPHEMERIS_TYPE":0,"CLASSIFICATION_TYPE":"U","NORAD_CAT_ID":48071,"ELEMENT_SET_NO":999,"REV_AT_EPOCH":25476,"BSTAR":-0.0011569,"MEAN_MOTION_DOT":-4.1e-06,"MEAN_MOTION_DDOT":0.0}]